1 43748U 18096AF  21143.47633050  .00005217  00000-0  16768-3 0  9995
2 43748  97.3924 223.7829 0017631   6.2290 353.9168 15.32567790138486
1 43748U 18096AF  21143.73749826  .00004835  00000-0  15556-3 0  9992
2 43748  97.3925 224.0438 0017606   5.3022 354.8403 15.32570354138529
1 43748U 18096AF  21144.45570738  .00005856  00000-0  18781-3 0  9993
2 43748  97.3925 224.7613 0017538   2.7548 357.3788 15.32579332138630
1 43748U 18096AF  21145.50036911  .00006034  00000-0  19340-3 0  9991
2 43748  97.3925 225.8047 0017418 359.0088   1.1116 15.32590178138794
1 43748U 18096AF  21145.63095118  .00004698  00000-0  15116-3 0  9990
2 43748  97.3925 225.9352 0017402 358.5310   1.5878 15.32589160138810
1 43748U 18096AF  21145.69624228  .00004657  00000-0  14988-3 0  9997
2 43748  97.3925 226.0004 0017393 358.2911   1.8269 15.32589730138820
1 43748U 18096AF  21146.47973187  .00005532  00000-0  17747-3 0  9994
2 43748  97.3925 226.7832 0017318 355.4068   4.7012 15.32600202138944
1 43748U 18096AF  21146.67560519  .00004403  00000-0  14179-3 0  9999
2 43748  97.3924 226.9788 0017287 354.6764   5.4291 15.32598833138970
1 43748U 18096AF  21147.45909116  .00004729  00000-0  15209-3 0  9992
2 43748  97.3922 227.7616 0017195 351.8284   8.2676 15.32606998139095
1 43748U 18096AF  21147.65496098  .00005375  00000-0  17247-3 0  9996
2 43748  97.3922 227.9573 0017177 351.1271   8.9665 15.32611302139122
1 43748U 18096AF  21148.17727970  .00006607  00000-0  21135-3 0  9990
2 43748  97.3921 228.4790 0017128 349.2318  10.8555 15.32620892139207
1 43748U 18096AF  21148.50372784  .00007050  00000-0  22531-3 0  9990
2 43748  97.3920 228.8052 0017096 348.0341  12.0493 15.32626022139259
1 43748U 18096AF  21148.76488536  .00006139  00000-0  19651-3 0  9997
2 43748  97.3919 229.0661 0017058 347.0771  13.0032 15.32628447139297
1 43748U 18096AF  21149.15662054  .00005506  00000-0  17652-3 0  9996
2 43748  97.3919 229.4576 0017029 345.5001  14.5750 15.32633282139356
1 43748U 18096AF  21149.74422135  .00004761  00000-0  15296-3 0  9999
2 43748  97.3916 230.0446 0016951 343.3220  16.7462 15.32640863139446
1 43748U 18096AF  21150.52768584  .00004890  00000-0  15698-3 0  9997
2 43748  97.3916 230.8274 0016882 340.4153  19.6439 15.32649167139564
1 43748U 18096AF  21150.72355145  .00004677  00000-0  15025-3 0  9991
2 43748  97.3916 231.0231 0016879 339.6425  20.4142 15.32650871139596
1 43748U 18096AF  21151.11528180  .00004317  00000-0  13889-3 0  9993
2 43748  97.3916 231.4145 0016838 338.2040  21.8483 15.32654112139659
1 43748U 18096AF  21151.44172312  .00004922  00000-0  15796-3 0  9992
2 43748  97.3915 231.7407 0016810 336.9848  23.0639 15.32658171139705
1 43748U 18096AF  21151.76816404  .00004314  00000-0  13877-3 0  9997
2 43748  97.3916 232.0668 0016785 335.7277  24.3173 15.32659924139752
1 43748U 18096AF  21152.48633118  .00004562  00000-0  14655-3 0  9996
2 43748  97.3916 232.7843 0016721 332.9719  27.0650 15.32667189139868
1 43748U 18096AF  21152.55161907  .00004479  00000-0  14393-3 0  9992
2 43748  97.3915 232.8494 0016712 332.6900  27.3462 15.32667547139872
1 43748U 18096AF  21152.61690683  .00004470  00000-0  14366-3 0  9998
2 43748  97.3915 232.9147 0016706 332.4401  27.5954 15.32668188139886
1 43748U 18096AF  21153.46564582  .00005074  00000-0  16268-3 0  9994
2 43748  97.3916 233.7627 0016624 329.1873  30.8392 15.32677007140014
1 43748U 18096AF  21154.11851950  .00004404  00000-0  14152-3 0  9991
2 43748  97.3916 234.4149 0016566 326.7064  33.3134 15.32681089140119
1 43748U 18096AF  21154.18380690  .00004558  00000-0  14637-3 0  9994
2 43748  97.3916 234.4802 0016553 326.4458  33.5735 15.32681900140127
1 43748U 18096AF  21154.64081676  .00004853  00000-0  15567-3 0  9998
2 43748  97.3916 234.9367 0016517 324.7152  35.2995 15.32686534140192
1 43748U 18096AF  21155.16311195  .00004965  00000-0  15919-3 0  9993
2 43748  97.3917 235.4586 0016486 322.6985  37.3111 15.32691508140277
1 43748U 18096AF  21155.62011897  .00004990  00000-0  15995-3 0  9992
2 43748  97.3919 235.9151 0016455 320.8819  39.1232 15.32695861140342
1 43748U 18096AF  21156.20769743  .00004932  00000-0  15811-3 0  9990
2 43748  97.3920 236.5022 0016435 318.5811  41.4185 15.32701400140432
1 43748U 18096AF  21156.46884270  .00005009  00000-0  16051-3 0  9994
2 43748  97.3921 236.7631 0016409 317.5712  42.4261 15.32704100140471
1 43748U 18096AF  21156.72998764  .00004900  00000-0  15705-3 0  9991
2 43748  97.3922 237.0240 0016403 316.5515  43.4433 15.32706487140513
1 43748U 18096AF  21157.18699030  .00004829  00000-0  15480-3 0  9996
2 43748  97.3923 237.4805 0016371 314.7849  45.2060 15.32710664140584
1 43748U 18096AF  21157.77456312  .00004950  00000-0  15859-3 0  9990
2 43748  97.3924 238.0676 0016328 312.5267  47.4596 15.32716561140670
1 43748U 18096AF  21158.16627762  .00003275  00000-0  10580-3 0  9998
2 43748  97.3924 238.4590 0016306 310.9754  49.0076 15.32716111140737
1 43748U 18096AF  21158.75384655  .00004079  00000-0  13112-3 0  9991
2 43748  97.3925 239.0460 0016266 308.6767  51.3019 15.32723924140827
1 43748U 18096AF  21159.08027279  .00004325  00000-0  13886-3 0  9996
2 43748  97.3925 239.3722 0016255 307.3830  52.5931 15.32727685140875
1 43748U 18096AF  21159.47198250  .00005897  00000-0  18834-3 0  9990
2 43748  97.3924 239.7636 0016226 305.8443  54.1291 15.32735776140937
1 43748U 18096AF  21159.79840703  .00005493  00000-0  17559-3 0  9997
2 43748  97.3925 240.0896 0016220 304.5614  55.4096 15.32738728140983
1 43748U 18096AF  21160.12483074  .00005098  00000-0  16314-3 0  9999
2 43748  97.3925 240.4157 0016195 303.3110  56.6581 15.32741666141030
1 43748U 18096AF  21160.19011525  .00005531  00000-0  17678-3 0  9990
2 43748  97.3926 240.4809 0016191 303.0564  56.9123 15.32743383141045
1 43748U 18096AF  21160.77767548  .00005143  00000-0  16454-3 0  9997
2 43748  97.3924 241.0680 0016164 300.7523  59.2127 15.32749394141134
1 43748U 18096AF  21161.49580123  .00004835  00000-0  15478-3 0  9991
2 43748  97.3923 241.7856 0016138 297.9149  62.0458 15.32756781141246
1 43748U 18096AF  21161.69165328  .00004579  00000-0  14673-3 0  9990
2 43748  97.3923 241.9813 0016135 297.1038  62.8558 15.32758383141279
1 43748U 18096AF  21162.47505846  .00004932  00000-0  15780-3 0  9993
2 43748  97.3922 242.7641 0016102 294.0269  65.9288 15.32767228141397
1 43748U 18096AF  21162.73619256  .00005021  00000-0  16059-3 0  9993
2 43748  97.3921 243.0250 0016096 292.9858  66.9686 15.32770353141430
1 43748U 18096AF  21163.25845832  .00005943  00000-0  18953-3 0  9990
2 43748  97.3921 243.5470 0016077 290.9557  68.9964 15.32778652141512
1 43748U 18096AF  21163.78072184  .00005826  00000-0  18583-3 0  9999
2 43748  97.3920 244.0689 0016058 288.9110  71.0391 15.32785281141593
1 43748U 18096AF  21164.17241783  .00005668  00000-0  18082-3 0  9994
2 43748  97.3919 244.4604 0016059 287.3656  72.5830 15.32790431141655
1 43748U 18096AF  21164.75995896  .00005553  00000-0  17717-3 0  9996
2 43748  97.3917 245.0475 0016043 284.9930  74.9536 15.32799420141743
1 43748U 18096AF  21165.15165155  .00005278  00000-0  16849-3 0  9997
2 43748  97.3915 245.4390 0016049 283.4291  76.5162 15.32804230141807
1 43748U 18096AF  21165.21693351  .00005187  00000-0  16564-3 0  9991
2 43748  97.3915 245.5042 0016050 283.1799  76.7652 15.32805038141818
1 43748U 18096AF  21165.73918875  .00004792  00000-0  15320-3 0  9999
2 43748  97.3914 246.0261 0016042 281.1051  78.8387 15.32809880141891
1 43748U 18096AF  21166.45728666  .00004733  00000-0  15130-3 0  9990
2 43748  97.3913 246.7437 0016021 278.3013  81.6413 15.32817537142009
1 43748U 18096AF  21166.78369371  .00004827  00000-0  15425-3 0  9991
2 43748  97.3913 247.0699 0016023 277.0281  82.9139 15.32821235142052
1 43748U 18096AF  21167.50178508  .00006450  00000-0  20515-3 0  9992
2 43748  97.3913 247.7876 0016030 274.2501  85.6909 15.32832955142166
1 43748U 18096AF  21167.76290832  .00006378  00000-0  20286-3 0  9999
2 43748  97.3913 248.0485 0016044 273.1526  86.7880 15.32836118142206
1 43748U 18096AF  21168.21987211  .00006615  00000-0  21026-3 0  9991
2 43748  97.3914 248.5051 0016055 271.3715  88.5688 15.32842964142272
1 43748U 18096AF  21168.67683426  .00006523  00000-0  20734-3 0  9995
2 43748  97.3914 248.9618 0016070 269.6103  90.3298 15.32849097142343
1 43748U 18096AF  21169.06851440  .00006257  00000-0  19895-3 0  9992
2 43748  97.3915 249.3532 0016068 268.0289  91.9113 15.32854264142401
1 43748U 18096AF  21169.46019393  .00005490  00000-0  17487-3 0  9992
2 43748  97.3915 249.7446 0016071 266.5382  93.4022 15.32857582142468
1 43748U 18096AF  21169.52547352  .00005857  00000-0  18636-3 0  9994
2 43748  97.3915 249.8098 0016073 266.2710  93.6694 15.32859268142477
1 43748U 18096AF  21170.50466644  .00005579  00000-0  17759-3 0  9994
2 43748  97.3918 250.7883 0016090 262.4113  97.5302 15.32870173142621
1 43748U 18096AF  21170.76578375  .00005011  00000-0  15977-3 0  9998
2 43748  97.3918 251.0493 0016101 261.3686  98.5732 15.32871828142668
1 43748U 18096AF  21171.48385298  .00004786  00000-0  15268-3 0  9999
2 43748  97.3920 251.7669 0016148 258.5286 101.4143 15.32879283142773
1 43748U 18096AF  21172.52831308  .00004392  00000-0  14027-3 0  9998
2 43748  97.3923 252.8107 0016191 254.4392 105.5063 15.32888184142930
1 43748U 18096AF  21173.44220983  .00005022  00000-0  15996-3 0  9998
2 43748  97.3925 253.7240 0016232 250.9222 109.0262 15.32898273143075
1 43748U 18096AF  21173.76859969  .00005679  00000-0  18052-3 0  9999
2 43748  97.3925 254.0501 0016240 249.6611 110.2886 15.32903351143121
1 43748U 18096AF  21174.16026709  .00005772  00000-0  18342-3 0  9998
2 43748  97.3925 254.4416 0016273 248.1442 111.8070 15.32907422143183
1 43748U 18096AF  21174.74776577  .00006046  00000-0  19193-3 0  9997
2 43748  97.3926 255.0288 0016318 245.8547 114.0989 15.32914370143272
1 43748U 18096AF  21175.13942990  .00006360  00000-0  20173-3 0  9994
2 43748  97.3926 255.4202 0016342 244.3594 115.5960 15.32919796143334
